HYPERFIELD-1A           
1 60562U 24149CY  26068.76488211  .00008569  00000+0  30052-3 0  9998
2 60562  97.3842 149.5066 0003865 313.7844  46.3076 15.29681349 86836
STARLINK-34331          
1 64204U 25117B   26068.30197446  .00023801  00000+0  81344-3 0  9994
2 64204  53.1615  41.5976 0001375  77.5931 282.5224 15.30187866 44467
